STARLINK-3229           
1 49751U 21115AD  25110.39046797  .00001335  00000+0  10200-3 0  9997
2 49751  53.2167 160.3873 0001544 110.4012 249.7146 15.08826114187840
STARLINK-3209           
1 49752U 21115AE  25109.63057905  .00001276  00000+0  98239-4 0  9999
2 49752  53.2168 153.8867 0001296  83.1746 276.9394 15.08837796186750
STARLINK-3200           
1 49753U 21115AF  25109.67653966  .00001027  00000+0  82639-4 0  9994
2 49753  53.2166 163.6700 0001450  74.0220 286.0931 15.08838669186627
STARLINK-3193           
1 49754U 21115AG  25110.49445174  .00012055  00000+0  77412-3 0  9992
2 49754  53.2154 150.1058 0001652  49.5150 310.5986 15.08843644187998
STARLINK-3210           
1 49755U 21115AH  25110.48342387  .00000020  00000+0  19337-4 0  9996
2 49755  53.2161 160.0979 0001397  79.4195 280.6954 15.08838869187856
STARLINK-3207           
1 49756U 21115AJ  25110.36931027 -.00005799  00000+0 -34674-3 0  9999
2 49756  53.2162 150.5627 0001165 119.2485 240.8624 15.08823851187970
STARLINK-3197           
1 49757U 21115AK  25110.49537942  .00002016  00000+0  14473-3 0  9994
2 49757  53.2168 150.0046 0001300  79.3868 280.7270 15.08839543187996
STARLINK-3194           
1 49758U 21115AL  25110.50913987  .00000693  00000+0  61627-4 0  9997
2 49758  53.2175 149.9318 0001457  84.4021 275.7137 15.08841574187998
STARLINK-3204           
1 49759U 21115AM  25109.63699450  .00000509  00000+0  50048-4 0  9997
2 49759  53.2166 153.8490 0001164  95.1676 264.9449 15.08831675186754
STARLINK-3199           
1 49760U 21115AN  25109.52290365 -.00000626  00000+0 -21213-4 0  9993
2 49760  53.2170 154.3599 0001455  64.9258 295.1885 15.08836782186743
STARLINK-3203           
1 49761U 21115AP  25110.50545857 -.00000482  00000+0 -12220-4 0  9991
2 49761  53.2169 149.9514 0001302  83.5079 276.6061 15.08834900187996
STARLINK-3195           
1 49762U 21115AQ  25110.45761591  .00002155  00000+0  15342-3 0  9995
2 49762  53.2165 150.1648 0001347  91.4364 268.6783 15.08843515187993
STARLINK-3198           
1 49763U 21115AR  25110.51283778 -.00000175  00000+0  71124-5 0  9992
2 49763  53.2177 149.9128 0001603  75.2796 284.8373 15.08833824188000
STARLINK-3227           
1 49765U 21115AT  25110.52113504  .00001509  00000+0  11285-3 0  9995
2 49765  53.2159 149.8886 0001210  84.2170 275.8960 15.08855402188000
STARLINK-3190           
1 49766U 21115AU  25109.60849551  .00000535  00000+0  51696-4 0  9990
2 49766  53.2159 153.9851 0001460  97.9233 262.1925 15.08838436186755
STARLINK-3192           
1 49767U 21115AV  25110.46129910  .00000613  00000+0  56617-4 0  9992
2 49767  53.2171 150.1443 0001356 100.7955 259.3190 15.08835998187993
STARLINK-3196           
1 49768U 21115AW  25110.47597890  .00006084  00000+0  39964-3 0  9993
2 49768  53.2159 150.0835 0001516  81.9706 278.1459 15.08876192187994
STARLINK-3208           
1 49769U 21115AX  25110.47698136  .00001433  00000+0  10813-3 0  9994
2 49769  53.2161 150.1256 0001260  90.0150 270.0987 15.08837306187997
STARLINK-3191           
1 49770U 21115AY  25110.48434611 -.00000161  00000+0  79901-5 0  9996
2 49770  53.2162 150.0922 0001295  83.3671 276.7469 15.08834683187993
STARLINK-3201           
1 49771U 21115AZ  25110.48338980  .00004707  00000+0  31355-3 0  9997
2 49771  53.2149 150.0465 0001254 103.6683 256.4448 15.08849304187993
STARLINK-3317           
1 50156U 21125A   25110.83117659  .00000580  00000+0  54541-4 0  9992
2 50156  53.2173 258.4872 0001120 112.1669 247.9442 15.08837584187384
STARLINK-3313           
1 50157U 21125B   25110.85505846 -.00000451  00000+0 -10222-4 0  9991
2 50157  53.2170 268.3760 0001244 108.8688 251.2439 15.08835276184633
STARLINK-3309           
1 50158U 21125C   25110.84497706  .00000158  00000+0  28021-4 0  9994
2 50158  53.2174 268.4336 0001526  77.0620 283.0542 15.08842134184633
STARLINK-3297           
1 50159U 21125D   25110.84129238 -.00000079  00000+0  13099-4 0  9999
2 50159  53.2171 268.4565 0001487  73.3768 286.7388 15.08842702184171
STARLINK-3304           
1 50161U 21125F   25110.85137438  .00001046  00000+0  83767-4 0  9997
2 50161  53.2167 268.3974 0001096  78.9536 281.1579 15.08854433187237
STARLINK-3306           
1 50163U 21125H   25109.90745850  .00003064  00000+0  21057-3 0  9991
2 50163  53.2186 252.6218 0001509  52.8792 307.2338 15.08835151187375
STARLINK-3298           
1 50165U 21125K   25108.91569614  .00001278  00000+0  98346-4 0  9996
2 50165  53.2173 277.0885 0001274  88.3491 271.7647 15.08843873187472
STARLINK-3305           
1 50166U 21125L   25109.85964531  .00000184  00000+0  29673-4 0  9990
2 50166  53.2177 262.7824 0001301  93.7775 266.3366 15.08840525184620
STARLINK-3271           
1 50167U 21125M   25110.83025934 -.00000060  00000+0  14338-4 0  9992
2 50167  53.2152 268.5029 0001151  87.5013 272.6111 15.08837924187231
STARLINK-3296           
1 50168U 21125N   25110.79806521  .00000283  00000+0  35892-4 0  9991
2 50168  53.2176 258.7229 0001330  88.6531 271.4614 15.08843807184764
STARLINK-3301           
1 50169U 21125P   25109.43551358 -.00001646  00000+0 -85353-4 0  9999
2 50169  53.2188 264.7483 0001495 124.9716 235.1416 15.08837445187657
STARLINK-3245           
1 50170U 21125Q   25109.85501786 -.00000079  00000+0  13144-4 0  9994
2 50170  53.2176 262.8680 0001349  91.8735 268.2411 15.08836311187221
STARLINK-3286           
1 50171U 21125R   25109.80349895  .00000387  00000+0  42408-4 0  9997
2 50171  53.2175 263.1024 0001004  95.8022 264.3085 15.08841116187704
STARLINK-3287           
1 50172U 21125S   25110.77501528  .00002870  00000+0  19833-3 0  9993
2 50172  53.2167 258.7380 0001124  98.8638 261.2481 15.08844746187371
STARLINK-3289           
1 50173U 21125T   25110.80907327  .00001183  00000+0  92451-4 0  9999
2 50173  53.2156 248.6556 0001137 107.6384 252.4732 15.08822786184912
STARLINK-3292           
1 50174U 21125U   25109.88042286 -.00000099  00000+0  11863-4 0  9994
2 50174  53.2156 258.3667 0000945  96.3894 263.7206 15.08846848187302
STARLINK-3291           
1 50175U 21125V   25110.78605898  .00000475  00000+0  47943-4 0  9995
2 50175  53.2189 258.6890 0001157 100.9119 259.2004 15.08843152187365
STARLINK-3293           
1 50176U 21125W   25109.84029340  .00000128  00000+0  26151-4 0  9996
2 50176  53.2178 262.9311 0001549 116.0169 244.0983 15.08836296187750
STARLINK-3282           
1 50177U 21125X   25109.91757916 -.00000683  00000+0 -24815-4 0  9995
2 50177  53.2167 262.5879 0001247 113.0152 247.0971 15.08842393187236
STARLINK-3284           
1 50178U 21125Y   25109.79708175  .00001601  00000+0  11864-3 0  9993
2 50178  53.2178 262.9845 0001225  91.9003 268.2129 15.08835953187224
STARLINK-3283           
1 50179U 21125Z   25110.83758000  .00000078  00000+0  22996-4 0  9999
2 50179  53.2177 258.4570 0001295 101.1956 258.9182 15.08835216187370
STARLINK-3265           
1 50180U 21125AA  25110.82381595  .00000246  00000+0  33564-4 0  9991
2 50180  53.2173 258.5297 0001343  89.6568 270.4578 15.08839995184775
STARLINK-3285           
1 50181U 21125AB  25110.81643943  .00000654  00000+0  59190-4 0  9995
2 50181  53.2152 258.5597 0001659 109.4354 250.6817 15.08852726187383
STARLINK-3277           
1 50182U 21125AC  25109.79980481  .00000925  00000+0  76195-4 0  9997
2 50182  53.2172 262.9631 0001260  92.9040 267.2096 15.08834130187742
STARLINK-3281           
1 50183U 21125AD  25110.81181902 -.00000592  00000+0 -19126-4 0  9997
2 50183  53.2167 258.5728 0001387 114.5818 245.5319 15.08850041184775
STARLINK-3279           
1 50185U 21125AF  25110.82286491 -.00000234  00000+0  33707-5 0  9993
2 50185  53.2171 258.5613 0001270  80.0669 280.0466 15.08836564187388
STARLINK-3274           
1 50186U 21125AG  25109.83937866  .00002721  00000+0  18899-3 0  9997
2 50186  53.2170 272.9398 0001291  97.6813 262.4326 15.08841430187563
STARLINK-3272           
1 50187U 21125AH  25109.40329253 -.00000058  00000+0  14468-4 0  9997
2 50187  53.2179 254.8946 0001527 117.3998 242.7149 15.08845530187768
STARLINK-3275           
1 50188U 21125AJ  25110.44577530  .00123087  00000+0  17794-2 0  9997
2 50188  53.2052 183.5516 0006339 341.4059  18.6720 15.55034409185797
STARLINK-3276           
1 50189U 21125AK  25110.80174938  .00000519  00000+0  50694-4 0  9995
2 50189  53.2146 258.6316 0001768  69.4898 290.6284 15.08845094187374
STARLINK-3268           
1 50190U 21125AL  25109.78969105 -.00004195  00000+0 -24553-3 0  9990
2 50190  53.2171 253.1612 0001107  65.6745 294.4363 15.08856306187838
STARLINK-3273           
1 50191U 21125AM  25109.86513654 -.00000281  00000+0  43996-6 0  9990
2 50191  53.2156 272.8184 0001402 122.0797 238.0331 15.08845122187560
STARLINK-3259           
1 50192U 21125AN  25110.77962127  .00000639  00000+0  58244-4 0  9992
2 50192  53.2155 248.7151 0001640  90.2115 269.9065 15.08842395184899
STARLINK-3261           
1 50193U 21125AP  25110.52569996 -.00000624  00000+0 -21101-4 0  9991
2 50193  53.2162 249.8612 0001201  87.7088 272.4041 15.08836016187467
STARLINK-3269           
1 50194U 21125AQ  25110.73510517  .00023243  00000+0  93175-3 0  9999
2 50194  53.2254 238.0196 0002998  11.4018 348.7049 15.24935419187659
STARLINK-3266           
1 50195U 21125AR  25110.52201744  .00003004  00000+0  20669-3 0  9997
2 50195  53.2161 249.8765 0001262 111.0205 249.0922 15.08855140187463
STARLINK-3267           
1 50197U 21125AT  25109.77865757  .00000545  00000+0  52316-4 0  9996
2 50197  53.2182 253.2089 0001393  95.4970 264.6181 15.08837277187882
STARLINK-3264           
1 50198U 21125AU  25110.82377323  .00000531  00000+0  51483-4 0  9991
2 50198  53.2180 248.5183 0001691 116.8633 243.2532 15.08837497187515
STARLINK-3270           
1 50199U 21125AV  25110.80537912  .00000932  00000+0  76650-4 0  9990
2 50199  53.2148 248.6048 0001576  69.1621 290.9540 15.08836195187501
